STARLINK-31965          
1 59888U 24100D   25051.23350522 -.00000295  00000+0  20435-6 0  9996
2 59888  43.0000 129.7628 0000894 227.8383 132.2398 15.40696810 42516
STARLINK-31969          
1 59889U 24100E   25052.19487976  .00006327  00000+0  15876-3 0  9998
2 59889  43.0046 124.9492 0001981 271.0131  89.0498 15.40669390 42730
STARLINK-31951          
1 59890U 24100F   25051.51522975 -.00000437  00000+0 -32104-5 0  9997
2 59890  43.0037 128.4432 0001116 282.5368  77.5364 15.40687762 42551
STARLINK-31949          
1 59891U 24100G   25051.50626647  .00000709  00000+0  24243-4 0  9992
2 59891  42.9993 128.3753 0001153 265.3093  94.7632 15.40693988 42535
STARLINK-31977          
1 59892U 24100H   25051.53091230  .00001138  00000+0  34523-4 0  9999
2 59892  43.0014 128.5660 0001220 278.1967  81.8751 15.40688335 42650
STARLINK-31963          
1 59893U 24100J   25051.49506646  .00000543  00000+0  20271-4 0  9991
2 59893  42.9992 128.2871 0001808 244.0081 116.0589 15.40687072 42642
STARLINK-31961          
1 59894U 24100K   25052.17023174  .00001255  00000+0  37309-4 0  9999
2 59894  42.9978 124.7577 0002050 259.7598 100.3027 15.40697267 42737
STARLINK-31964          
1 59895U 24100L   25051.26038441 -.00002102  00000+0 -43061-4 0  9998
2 59895  43.0004 129.9739 0001536 266.1160  93.9521 15.40706881 42562
STARLINK-31905          
1 59896U 24100M   25051.53318069 -.00006393  00000+0 -14618-3 0  9997
2 59896  42.9985 128.5767 0001137 200.4214 159.6597 15.40646956 42630
STARLINK-31928          
1 59897U 24100N   25051.48610043  .00001025  00000+0  31806-4 0  9993
2 59897  43.0010 128.2210 0001326 268.0128  92.0577 15.40698313 42559
STARLINK-31953          
1 59898U 24100P   25051.53762608  .00000868  00000+0  28055-4 0  9991
2 59898  43.0061 128.6165 0002870 284.4035  75.6503 15.40694238 42630
STARLINK-31942          
1 59899U 24100Q   25051.51299377  .00000690  00000+0  23833-4 0  9990
2 59899  43.0076 128.4216 0003157 279.8957  80.1543 15.40670415 42649
STARLINK-31676          
1 59900U 24100R   25051.23798871  .00000746  00000+0  25126-4 0  9994
2 59900  43.0051 129.7984 0001730 256.1779 103.8885 15.40689776 42503
STARLINK-31908          
1 59901U 24100S   25052.17695075 -.00002956  00000+0 -63502-4 0  9998
2 59901  43.0010 124.8098 0001651 259.5185 100.5486 15.40710023 42759
STARLINK-31914          
1 59902U 24100T   25051.49058710 -.00000087  00000+0  51918-5 0  9993
2 59902  43.0021 128.2493 0001238 282.1351  77.9366 15.40688145 42547
STARLINK-31850          
1 59903U 24100U   25051.51748384 -.00001936  00000+0 -39124-4 0  9999
2 59903  43.0016 128.4576 0001181 271.3551  88.7171 15.40673764 42595
STARLINK-31924          
1 59904U 24100V   25051.50851809 -.00001820  00000+0 -36336-4 0  9990
2 59904  42.9999 128.3847 0002345 274.8758  85.1831 15.40678063 42540
STARLINK-31898          
1 59905U 24100W   25052.18815457 -.00002240  00000+0 -46340-4 0  9998
2 59905  43.0065 124.8923 0003630 268.5679  91.4761 15.40699638 42748
STARLINK-31861          
1 59906U 24100X   25051.91668981  .00095015  00000+0  20259-2 0  9996
2 59906  43.0000 125.2223 0000216 323.7960 116.9836 15.43879568 42617
STARLINK-31920          
1 59907U 24100Y   25051.91668981  .00157611  00000+0  12566-2 0  9990
2 59907  42.9934 105.0975 0011594  66.9979 341.8120 15.69827970 42847
