OBJECT_NAME,OBJECT_ID,EPOCH,MEAN_MOTION,ECCENTRICITY,INCLINATION,RA_OF_ASC_NODE,ARG_OF_PERICENTER,MEAN_ANOMALY,EPHEMERIS_TYPE,CLASSIFICATION_TYPE,NORAD_CAT_ID,ELEMENT_SET_NO,REV_AT_EPOCH,BSTAR,MEAN_MOTION_DOT,MEAN_MOTION_DDOT
STARLINK-31965,2024-100D,2025-02-20T05:36:14.851008,15.40696810,.0000894,43.0000,129.7628,227.8383,132.2398,0,U,59888,999,4251,.20435E-6,-.295E-5,0
STARLINK-31969,2024-100E,2025-02-21T04:40:37.611264,15.40669390,.0001981,43.0046,124.9492,271.0131,89.0498,0,U,59889,999,4273,.15876E-3,.6327E-4,0
STARLINK-31951,2024-100F,2025-02-20T12:21:55.850400,15.40687762,.0001116,43.0037,128.4432,282.5368,77.5364,0,U,59890,999,4255,-.32104E-5,-.437E-5,0
STARLINK-31949,2024-100G,2025-02-20T12:09:01.423008,15.40693988,.0001153,42.9993,128.3753,265.3093,94.7632,0,U,59891,999,4253,.24243E-4,.709E-5,0
STARLINK-31977,2024-100H,2025-02-20T12:44:30.822720,15.40688335,.000122,43.0014,128.5660,278.1967,81.8751,0,U,59892,999,4265,.34523E-4,.1138E-4,0
STARLINK-31963,2024-100J,2025-02-20T11:52:53.742144,15.40687072,.0001808,42.9992,128.2871,244.0081,116.0589,0,U,59893,999,4264,.20271E-4,.543E-5,0
STARLINK-31961,2024-100K,2025-02-21T04:05:08.022336,15.40697267,.000205,42.9978,124.7577,259.7598,100.3027,0,U,59894,999,4273,.37309E-4,.1255E-4,0
STARLINK-31964,2024-100L,2025-02-20T06:14:57.213024,15.40706881,.0001536,43.0004,129.9739,266.1160,93.9521,0,U,59895,999,4256,-.43061E-4,-.2102E-4,0
STARLINK-31905,2024-100M,2025-02-20T12:47:46.811616,15.40646956,.0001137,42.9985,128.5767,200.4214,159.6597,0,U,59896,999,4263,-.14618E-3,-.6393E-4,0
STARLINK-31928,2024-100N,2025-02-20T11:39:59.077152,15.40698313,.0001326,43.0010,128.2210,268.0128,92.0577,0,U,59897,999,4255,.31806E-4,.1025E-4,0
STARLINK-31953,2024-100P,2025-02-20T12:54:10.893312,15.40694238,.000287,43.0061,128.6165,284.4035,75.6503,0,U,59898,999,4263,.28055E-4,.868E-5,0
STARLINK-31942,2024-100Q,2025-02-20T12:18:42.661728,15.40670415,.0003157,43.0076,128.4216,279.8957,80.1543,0,U,59899,999,4264,.23833E-4,.69E-5,0
STARLINK-31676,2024-100R,2025-02-20T05:42:42.224544,15.40689776,.000173,43.0051,129.7984,256.1779,103.8885,0,U,59900,999,4250,.25126E-4,.746E-5,0
STARLINK-31908,2024-100S,2025-02-21T04:14:48.544800,15.40710023,.0001651,43.0010,124.8098,259.5185,100.5486,0,U,59901,999,4275,-.63502E-4,-.2956E-4,0
STARLINK-31914,2024-100T,2025-02-20T11:46:26.725440,15.40688145,.0001238,43.0021,128.2493,282.1351,77.9366,0,U,59902,999,4254,.51918E-5,-.87E-6,0
STARLINK-31850,2024-100U,2025-02-20T12:25:10.603776,15.40673764,.0001181,43.0016,128.4576,271.3551,88.7171,0,U,59903,999,4259,-.39124E-4,-.1936E-4,0
STARLINK-31924,2024-100V,2025-02-20T12:12:15.962976,15.40678063,.0002345,42.9999,128.3847,274.8758,85.1831,0,U,59904,999,4254,-.36336E-4,-.182E-4,0
STARLINK-31898,2024-100W,2025-02-21T04:30:56.554848,15.40699638,.000363,43.0065,124.8923,268.5679,91.4761,0,U,59905,999,4274,-.4634E-4,-.224E-4,0
STARLINK-31861,2024-100X,2025-02-20T22:00:01.999584,15.43879568,.0000216,43.0000,125.2223,323.7960,116.9836,0,U,59906,999,4261,.20259E-2,.95015E-3,0
STARLINK-31920,2024-100Y,2025-02-20T22:00:01.999584,15.69827970,.0011594,42.9934,105.0975,66.9979,341.8120,0,U,59907,999,4284,.12566E-2,.157611E-2,0
